{"type": "FeatureCollection", "features": [ {"type": "Feature", "properties": {"norad_id": 30283, "name": "FENGYUN 1C DEB", "group": "fengyun-1c-debris", "lat": 32.55508887598707, "lon": -19.736422463186486, "alt_km": 751.358380326702, "timestamp": "2025-12-18T10:51:26.081856+00:00", "meta": {"OBJECT_NAME": "FENGYUN 1C DEB", "OBJECT_ID": "1999-025YU", "EPOCH": "2025-12-17T13:00:59.447808", "MEAN_MOTION": 14.01976414, "ECCENTRICITY": 0.01846999, "INCLINATION": 98.8667, "RA_OF_ASC_NODE": 345.0976, "ARG_OF_PERICENTER": 29.9748, "MEAN_ANOMALY": 92.4176, "EPHEMERIS_TYPE": 0, "CLASSIFICATION_TYPE": "U", "NORAD_CAT_ID": 30283, "ELEMENT_SET_NO": 999, "REV_AT_EPOCH": 96758, "BSTAR": 6.1362246e-05, "MEAN_MOTION_DOT": 6.6e-07, "MEAN_MOTION_DDOT": 0}, "tle": {"line1": "1 30283U 99025YU  25351.54235472  .00000066  00000+0  61362-4 0  9992", "line2": "2 30283  98.8667 345.0976 0184699  29.9748  92.4176 14.01976414967583"}}, "geometry": {"type": "Point", "coordinates": [-19.736422463186486, 32.55508887598707]}}, {"type": "Feature", "properties": {"norad_id": 30284, "name": "FENGYUN 1C DEB", "group": "fengyun-1c-debris", "lat": 79.34366555387228, "lon": 6.231454695800964, "alt_km": 761.7648810379278, "timestamp": "2025-12-18T10:51:26.081867+00:00", "meta": {"OBJECT_NAME": "FENGYUN 1C DEB", "OBJECT_ID": "1999-025YV", "EPOCH": "2025-12-17T16:40:46.831008", "MEAN_MOTION": 14.28796762, "ECCENTRICITY": 0.00374862, "INCLINATION": 98.7208, "RA_OF_ASC_NODE": 60.1348, "ARG_OF_PERICENTER": 94.7725, "MEAN_ANOMALY": 55.5625, "EPHEMERIS_TYPE": 0, "CLASSIFICATION_TYPE": "U", "NORAD_CAT_ID": 30284, "ELEMENT_SET_NO": 999, "REV_AT_EPOCH": 97586, "BSTAR": 0.0010910496, "MEAN_MOTION_DOT": 2.726e-05, "MEAN_MOTION_DDOT": 0}, "tle": {"line1": "1 30284U 99025YV  25351.69498647  .00002726  00000+0  10910-2 0  9990", "line2": "2 30284  98.7208  60.1348 0037486  94.7725  55.5625 14.28796762975862"}}, "geometry": {"type": "Point", "coordinates": [6.231454695800964, 79.34366555387228]}}, {"type": "Feature", "properties": {"norad_id": 30286, "name": "FENGYUN 1C DEB", "group": "fengyun-1c-debris", "lat": -5.088613864319574, "lon": 175.86429730715923, "alt_km": 836.0416686205344, "timestamp": "2025-12-18T10:51:26.081878+00:00", "meta": {"OBJECT_NAME": "FENGYUN 1C DEB", "OBJECT_ID": "1999-025YX", "EPOCH": "2025-12-17T14:08:13.830144", "MEAN_MOTION": 14.12725066, "ECCENTRICITY": 0.00648643, "INCLINATION": 98.6899, "RA_OF_ASC_NODE": 355.807, "ARG_OF_PERICENTER": 119.1385, "MEAN_ANOMALY": 356.8959, "EPHEMERIS_TYPE": 0, "CLASSIFICATION_TYPE": "U", "NORAD_CAT_ID": 30286, "ELEMENT_SET_NO": 999, "REV_AT_EPOCH": 97527, "BSTAR": 7.9684436e-05, "MEAN_MOTION_DOT": 1.09e-06, "MEAN_MOTION_DDOT": 0}, "tle": {"line1": "1 30286U 99025YX  25351.58904896  .00000109  00000+0  79684-4 0  9996", "line2": "2 30286  98.6899 355.8070 0064864 119.1385 356.8959 14.12725066975273"}}, "geometry": {"type": "Point", "coordinates": [175.86429730715923, -5.088613864319574]}}, {"type": "Feature", "properties": {"norad_id": 30287, "name": "FENGYUN 1C DEB", "group": "fengyun-1c-debris", "lat": -29.729665136559824, "lon": -158.8896207403734, "alt_km": 1262.7293615595217, "timestamp": "2025-12-18T10:51:26.081889+00:00", "meta": {"OBJECT_NAME": "FENGYUN 1C DEB", "OBJECT_ID": "1999-025YY", "EPOCH": "2025-12-17T15:05:37.006656", "MEAN_MOTION": 13.6860445, "ECCENTRICITY": 0.04131036, "INCLINATION": 98.6372, "RA_OF_ASC_NODE": 25.3499, "ARG_OF_PERICENTER": 359.3102, "MEAN_ANOMALY": 118.228, "EPHEMERIS_TYPE": 0, "CLASSIFICATION_TYPE": "U", "NORAD_CAT_ID": 30287, "ELEMENT_SET_NO": 999, "REV_AT_EPOCH": 93925, "BSTAR": 0.00083356986, "MEAN_MOTION_DOT": 1.262e-05, "MEAN_MOTION_DDOT": 0}, "tle": {"line1": "1 30287U 99025YY  25351.62890054  .00001262  00000+0  83357-3 0  9994", "line2": "2 30287  98.6372  25.3499 0413103 359.3102 118.2280 13.68604450939251"}}, "geometry": {"type": "Point", "coordinates": [-158.8896207403734, -29.729665136559824]}}, {"type": "Feature", "properties": {"norad_id": 30288, "name": "FENGYUN 1C DEB", "group": "fengyun-1c-debris", "lat": 7.676006294370516, "lon": 73.299931532248, "alt_km": 778.0799871194404, "timestamp": "2025-12-18T10:51:26.081900+00:00", "meta": {"OBJECT_NAME": "FENGYUN 1C DEB", "OBJECT_ID": "1999-025YZ", "EPOCH": "2025-12-17T18:37:22.735776", "MEAN_MOTION": 14.32629259, "ECCENTRICITY": 0.00209926, "INCLINATION": 99.3959, "RA_OF_ASC_NODE": 73.8461, "ARG_OF_PERICENTER": 306.2558, "MEAN_ANOMALY": 174.7148, "EPHEMERIS_TYPE": 0, "CLASSIFICATION_TYPE": "U", "NORAD_CAT_ID": 30288, "ELEMENT_SET_NO": 999, "REV_AT_EPOCH": 97641, "BSTAR": 0.0013816555, "MEAN_MOTION_DOT": 3.714e-05, "MEAN_MOTION_DDOT": 0}, "tle": {"line1": "1 30288U 99025YZ  25351.77595759  .00003714  00000+0  13817-2 0  9992", "line2": "2 30288  99.3959  73.8461 0020992 306.2558 174.7148 14.32629259976419"}}, "geometry": {"type": "Point", "coordinates": [73.299931532248, 7.676006294370516]}}, {"type": "Feature", "properties": {"norad_id": 30289, "name": "FENGYUN 1C DEB", "group": "fengyun-1c-debris", "lat": -1.289146186128571, "lon": 89.24962748963097, "alt_km": 789.8097544386974, "timestamp": "2025-12-18T10:51:26.081910+00:00", "meta": {"OBJECT_NAME": "FENGYUN 1C DEB", "OBJECT_ID": "1999-025ZA", "EPOCH": "2025-12-17T13:02:17.740032", "MEAN_MOTION": 14.25867262, "ECCENTRICITY": 0.0037511, "INCLINATION": 98.9272, "RA_OF_ASC_NODE": 88.1213, "ARG_OF_PERICENTER": 315.6007, "MEAN_ANOMALY": 58.8746, "EPHEMERIS_TYPE": 0, "CLASSIFICATION_TYPE": "U", "NORAD_CAT_ID": 30289, "ELEMENT_SET_NO": 999, "REV_AT_EPOCH": 97150, "BSTAR": 0.001547716, "MEAN_MOTION_DOT": 3.666e-05, "MEAN_MOTION_DDOT": 0}, "tle": {"line1": "1 30289U 99025ZA  25351.54326088  .00003666  00000+0  15477-2 0  9995", "line2": "2 30289  98.9272  88.1213 0037511 315.6007  58.8746 14.25867262971506"}}, "geometry": {"type": "Point", "coordinates": [89.24962748963097, -1.289146186128571]}}, {"type": "Feature", "properties": {"norad_id": 30290, "name": "FENGYUN 1C DEB", "group": "fengyun-1c-debris", "lat": 30.049344265956396, "lon": 89.97371488813087, "alt_km": 631.0378410272706, "timestamp": "2025-12-18T10:51:26.081921+00:00", "meta": {"OBJECT_NAME": "FENGYUN 1C DEB", "OBJECT_ID": "1999-025ZB", "EPOCH": "2025-12-17T12:12:41.154624", "MEAN_MOTION": 14.75205199, "ECCENTRICITY": 0.00165436, "INCLINATION": 102.6224, "RA_OF_ASC_NODE": 95.9574, "ARG_OF_PERICENTER": 33.7124, "MEAN_ANOMALY": 28.6539, "EPHEMERIS_TYPE": 0, "CLASSIFICATION_TYPE": "U", "NORAD_CAT_ID": 30290, "ELEMENT_SET_NO": 999, "REV_AT_EPOCH": 97949, "BSTAR": 0.0036148558, "MEAN_MOTION_DOT": 0.00024488, "MEAN_MOTION_DDOT": 0}, "tle": {"line1": "1 30290U 99025ZB  25351.50880966  .00024488  00000+0  36149-2 0  9997", "line2": "2 30290 102.6224  95.9574 0016543  33.7124  28.6539 14.75205199979495"}}, "geometry": {"type": "Point", "coordinates": [89.97371488813087, 30.049344265956396]}}, {"type": "Feature", "properties": {"norad_id": 30291, "name": "FENGYUN 1C DEB", "group": "fengyun-1c-debris", "lat": 70.70436555976532, "lon": -140.78809529077145, "alt_km": 674.6880344441179, "timestamp": "2025-12-18T10:51:26.081941+00:00", "meta": {"OBJECT_NAME": "FENGYUN 1C DEB", "OBJECT_ID": "1999-025ZC", "EPOCH": "2025-12-17T15:00:27.713664", "MEAN_MOTION": 14.55355175, "ECCENTRICITY": 0.01112305, "INCLINATION": 97.2332, "RA_OF_ASC_NODE": 239.7642, "ARG_OF_PERICENTER": 3.8828, "MEAN_ANOMALY": 56.3936, "EPHEMERIS_TYPE": 0, "CLASSIFICATION_TYPE": "U", "NORAD_CAT_ID": 30291, "ELEMENT_SET_NO": 999, "REV_AT_EPOCH": 97779, "BSTAR": 0.0021400533, "MEAN_MOTION_DOT": 0.00010063, "MEAN_MOTION_DDOT": 0}, "tle": {"line1": "1 30291U 99025ZC  25351.62532076  .00010063  00000+0  21401-2 0  9996", "line2": "2 30291  97.2332 239.7642 0111230   3.8828  56.3936 14.55355175977795"}}, "geometry": {"type": "Point", "coordinates": [-140.78809529077145, 70.70436555976532]}}, {"type": "Feature", "properties": {"norad_id": 30293, "name": "FENGYUN 1C DEB", "group": "fengyun-1c-debris", "lat": -18.240297739970355, "lon": 0.8453149101835137, "alt_km": 743.572353536586, "timestamp": "2025-12-18T10:51:26.081954+00:00", "meta": {"OBJECT_NAME": "FENGYUN 1C DEB", "OBJECT_ID": "1999-025ZE", "EPOCH": "2025-12-17T19:07:11.861184", "MEAN_MOTION": 14.48972953, "ECCENTRICITY": 0.00767857, "INCLINATION": 99.2547, "RA_OF_ASC_NODE": 183.2072, "ARG_OF_PERICENTER": 99.7549, "MEAN_ANOMALY": 279.2618, "EPHEMERIS_TYPE": 0, "CLASSIFICATION_TYPE": "U", "NORAD_CAT_ID": 30293, "ELEMENT_SET_NO": 999, "REV_AT_EPOCH": 99050, "BSTAR": 0.00056281397, "MEAN_MOTION_DOT": 2.159e-05, "MEAN_MOTION_DDOT": 0}, "tle": {"line1": "1 30293U 99025ZE  25351.79666506  .00002159  00000+0  56281-3 0  9994", "line2": "2 30293  99.2547 183.2072 0076785  99.7549 279.2618 14.48972953990504"}}, "geometry": {"type": "Point", "coordinates": [0.8453149101835137, -18.240297739970355]}}, {"type": "Feature", "properties": {"norad_id": 30294, "name": "FENGYUN 1C DEB", "group": "fengyun-1c-debris", "lat": -8.755603460175502, "lon": 159.21894245414092, "alt_km": 810.2991034477554, "timestamp": "2025-12-18T10:51:26.081965+00:00", "meta": {"OBJECT_NAME": "FENGYUN 1C DEB", "OBJECT_ID": "1999-025ZF", "EPOCH": "2025-12-17T18:04:12.436608", "MEAN_MOTION": 14.34965367, "ECCENTRICITY": 0.01972935, "INCLINATION": 98.3556, "RA_OF_ASC_NODE": 339.8386, "ARG_OF_PERICENTER": 294.6495, "MEAN_ANOMALY": 245.0293, "EPHEMERIS_TYPE": 0, "CLASSIFICATION_TYPE": "U", "NORAD_CAT_ID": 30294, "ELEMENT_SET_NO": 999, "REV_AT_EPOCH": 98608, "BSTAR": 0.00030823275, "MEAN_MOTION_DOT": 1.042e-05, "MEAN_MOTION_DDOT": 0}, "tle": {"line1": "1 30294U 99025ZF  25351.75292172  .00001042  00000+0  30823-3 0  9999", "line2": "2 30294  98.3556 339.8386 0197293 294.6495 245.0293 14.34965367986080"}}, "geometry": {"type": "Point", "coordinates": [159.21894245414092, -8.755603460175502]}}]}